[{"OBJECT_NAME":"SHIYAN-29","OBJECT_ID":"2025-196A","EPOCH":"2026-04-27T04:46:21.775296","MEAN_MOTION":1.00271662,"ECCENTRICITY":0.00096474,"INCLINATION":28.7686,"RA_OF_ASC_NODE":19.1794,"ARG_OF_PERICENTER":176.4252,"MEAN_ANOMALY":186.7564,"EPHEMERIS_TYPE":0,"CLASSIFICATION_TYPE":"U","NORAD_CAT_ID":65486,"ELEMENT_SET_NO":999,"REV_AT_EPOCH":237,"BSTAR":0,"MEAN_MOTION_DOT":-2.85e-6,"MEAN_MOTION_DDOT":0},{"OBJECT_NAME":"TJS-20","OBJECT_ID":"2025-238A","EPOCH":"2026-04-27T01:59:21.598368","MEAN_MOTION":1.00268565,"ECCENTRICITY":0.000387,"INCLINATION":5.583,"RA_OF_ASC_NODE":299.7599,"ARG_OF_PERICENTER":122.7182,"MEAN_ANOMALY":244.8751,"EPHEMERIS_TYPE":0,"CLASSIFICATION_TYPE":"U","NORAD_CAT_ID":66142,"ELEMENT_SET_NO":999,"REV_AT_EPOCH":182,"BSTAR":0,"MEAN_MOTION_DOT":4.0e-8,"MEAN_MOTION_DDOT":0},{"OBJECT_NAME":"CMS-03 (GSAT-7R)","OBJECT_ID":"2025-249B","EPOCH":"2026-04-27T02:50:38.609088","MEAN_MOTION":1.00272424,"ECCENTRICITY":0.0003681,"INCLINATION":0.0058,"RA_OF_ASC_NODE":169.2864,"ARG_OF_PERICENTER":208.0877,"MEAN_ANOMALY":314.421,"EPHEMERIS_TYPE":0,"CLASSIFICATION_TYPE":"U","NORAD_CAT_ID":66311,"ELEMENT_SET_NO":999,"REV_AT_EPOCH":183,"BSTAR":0,"MEAN_MOTION_DOT":-8.8e-7,"MEAN_MOTION_DDOT":0},{"OBJECT_NAME":"VIASAT-3 F2","OBJECT_ID":"2025-261A","EPOCH":"2026-04-27T11:30:07.168032","MEAN_MOTION":1.00273001,"ECCENTRICITY":0.0001287,"INCLINATION":0.022,"RA_OF_ASC_NODE":105.786,"ARG_OF_PERICENTER":25.1269,"MEAN_ANOMALY":178.118,"EPHEMERIS_TYPE":0,"CLASSIFICATION_TYPE":"U","NORAD_CAT_ID":66454,"ELEMENT_SET_NO":999,"REV_AT_EPOCH":227,"BSTAR":0,"MEAN_MOTION_DOT":-2.43e-6,"MEAN_MOTION_DDOT":0},{"OBJECT_NAME":"SHIJIAN-28 (SJ-28)","OBJECT_ID":"2025-277A","EPOCH":"2026-04-27T02:08:38.539680","MEAN_MOTION":1.00270727,"ECCENTRICITY":2.974e-5,"INCLINATION":4.6691,"RA_OF_ASC_NODE":272.9311,"ARG_OF_PERICENTER":358.1666,"MEAN_ANOMALY":93.0107,"EPHEMERIS_TYPE":0,"CLASSIFICATION_TYPE":"U","NORAD_CAT_ID":66549,"ELEMENT_SET_NO":999,"REV_AT_EPOCH":164,"BSTAR":0,"MEAN_MOTION_DOT":-3.79e-6,"MEAN_MOTION_DDOT":0},{"OBJECT_NAME":"TJS-22","OBJECT_ID":"2025-290A","EPOCH":"2026-04-27T00:15:30.297312","MEAN_MOTION":1.00273025,"ECCENTRICITY":0.0002142,"INCLINATION":1.6545,"RA_OF_ASC_NODE":285.9588,"ARG_OF_PERICENTER":0.6218,"MEAN_ANOMALY":358.7713,"EPHEMERIS_TYPE":0,"CLASSIFICATION_TYPE":"U","NORAD_CAT_ID":66990,"ELEMENT_SET_NO":999,"REV_AT_EPOCH":151,"BSTAR":0,"MEAN_MOTION_DOT":-2.1e-7,"MEAN_MOTION_DDOT":0},{"OBJECT_NAME":"TJS-23","OBJECT_ID":"2025-306A","EPOCH":"2026-04-26T17:49:33.504096","MEAN_MOTION":1.00271854,"ECCENTRICITY":0.0004469,"INCLINATION":5.7056,"RA_OF_ASC_NODE":297.7498,"ARG_OF_PERICENTER":134.9158,"MEAN_ANOMALY":224.9104,"EPHEMERIS_TYPE":0,"CLASSIFICATION_TYPE":"U","NORAD_CAT_ID":67226,"ELEMENT_SET_NO":999,"REV_AT_EPOCH":137,"BSTAR":0,"MEAN_MOTION_DOT":-6.0e-8,"MEAN_MOTION_DDOT":0},{"OBJECT_NAME":"FENGYUN 4C","OBJECT_ID":"2025-312A","EPOCH":"2026-04-27T11:22:28.151616","MEAN_MOTION":1.00273234,"ECCENTRICITY":6.19e-5,"INCLINATION":0.034,"RA_OF_ASC_NODE":75.5592,"ARG_OF_PERICENTER":53.3765,"MEAN_ANOMALY":30.1409,"EPHEMERIS_TYPE":0,"CLASSIFICATION_TYPE":"U","NORAD_CAT_ID":67246,"ELEMENT_SET_NO":999,"REV_AT_EPOCH":127,"BSTAR":0,"MEAN_MOTION_DOT":-3.32e-6,"MEAN_MOTION_DDOT":0},{"OBJECT_NAME":"SHIJIAN-29A (SJ-29A)","OBJECT_ID":"2025-315A","EPOCH":"2026-04-27T01:48:57.830112","MEAN_MOTION":1.00274841,"ECCENTRICITY":0.00027814,"INCLINATION":3.2693,"RA_OF_ASC_NODE":96.3555,"ARG_OF_PERICENTER":322.8697,"MEAN_ANOMALY":256.5675,"EPHEMERIS_TYPE":0,"CLASSIFICATION_TYPE":"U","NORAD_CAT_ID":67302,"ELEMENT_SET_NO":999,"REV_AT_EPOCH":110,"BSTAR":0,"MEAN_MOTION_DOT":-7.8e-7,"MEAN_MOTION_DDOT":0},{"OBJECT_NAME":"SHIJIAN-29B (SJ-29B)","OBJECT_ID":"2025-315C","EPOCH":"2026-04-27T04:29:51.662400","MEAN_MOTION":1.00274882,"ECCENTRICITY":0.0006535,"INCLINATION":3.2688,"RA_OF_ASC_NODE":96.3483,"ARG_OF_PERICENTER":339.0151,"MEAN_ANOMALY":280.8505,"EPHEMERIS_TYPE":0,"CLASSIFICATION_TYPE":"U","NORAD_CAT_ID":67403,"ELEMENT_SET_NO":999,"REV_AT_EPOCH":117,"BSTAR":0,"MEAN_MOTION_DOT":-7.9e-7,"MEAN_MOTION_DDOT":0},{"OBJECT_NAME":"ELEKTRO-L 5","OBJECT_ID":"2026-028A","EPOCH":"2026-04-26T04:38:52.799424","MEAN_MOTION":1.00271675,"ECCENTRICITY":9.932e-5,"INCLINATION":0.3603,"RA_OF_ASC_NODE":297.1584,"ARG_OF_PERICENTER":184.7777,"MEAN_ANOMALY":238.0649,"EPHEMERIS_TYPE":0,"CLASSIFICATION_TYPE":"U","NORAD_CAT_ID":67756,"ELEMENT_SET_NO":999,"REV_AT_EPOCH":73,"BSTAR":0,"MEAN_MOTION_DOT":-1.11e-6,"MEAN_MOTION_DDOT":0},{"OBJECT_NAME":"JAM-E JAM 1","OBJECT_ID":"2026-028B","EPOCH":"2026-04-27T04:56:38.684256","MEAN_MOTION":1.00266157,"ECCENTRICITY":5.048e-5,"INCLINATION":0.3745,"RA_OF_ASC_NODE":291.4196,"ARG_OF_PERICENTER":293.3424,"MEAN_ANOMALY":98.537,"EPHEMERIS_TYPE":0,"CLASSIFICATION_TYPE":"U","NORAD_CAT_ID":67757,"ELEMENT_SET_NO":999,"REV_AT_EPOCH":61,"BSTAR":0,"MEAN_MOTION_DOT":1.45e-6,"MEAN_MOTION_DDOT":0},{"OBJECT_NAME":"ECHOSTAR 25","OBJECT_ID":"2026-045A","EPOCH":"2026-04-24T19:24:15.391008","MEAN_MOTION":1.00269397,"ECCENTRICITY":0.00029238,"INCLINATION":0.0161,"RA_OF_ASC_NODE":49.1041,"ARG_OF_PERICENTER":45.4072,"MEAN_ANOMALY":280.5526,"EPHEMERIS_TYPE":0,"CLASSIFICATION_TYPE":"U","NORAD_CAT_ID":68126,"ELEMENT_SET_NO":999,"REV_AT_EPOCH":45,"BSTAR":0,"MEAN_MOTION_DOT":0,"MEAN_MOTION_DDOT":0}]
