SHIYAN-29               
1 65486U 25196A   26117.19886314 -.00000285  00000+0  00000+0 0  9993
2 65486  28.7686  19.1794 0009647 176.4252 186.7564  1.00271662  2376
TJS-20                  
1 66142U 25238A   26117.08288887  .00000004  00000+0  00000+0 0  9997
2 66142   5.5830 299.7599 0003870 122.7182 244.8751  1.00268565  1828
CMS-03 (GSAT-7R)        
1 66311U 25249B   26117.11850242 -.00000088  00000+0  00000+0 0  9994
2 66311   0.0058 169.2864 0003681 208.0877 314.4210  1.00272424  1837
VIASAT-3 F2             
1 66454U 25261A   26117.47924963 -.00000243  00000+0  00000+0 0  9990
2 66454   0.0220 105.7860 0001287  25.1269 178.1180  1.00273001  2272
SHIJIAN-28 (SJ-28)      
1 66549U 25277A   26117.08933495 -.00000379  00000+0  00000+0 0  9999
2 66549   4.6691 272.9311 0000297 358.1666  93.0107  1.00270727  1643
TJS-22                  
1 66990U 25290A   26117.01076733 -.00000021  00000+0  00000+0 0  9994
2 66990   1.6545 285.9588 0002142   0.6218 358.7713  1.00273025  1515
TJS-23                  
1 67226U 25306A   26116.74274889 -.00000006  00000+0  00000+0 0  9999
2 67226   5.7056 297.7498 0004469 134.9158 224.9104  1.00271854  1379
FENGYUN 4C              
1 67246U 25312A   26117.47393694 -.00000332  00000+0  00000+0 0  9997
2 67246   0.0340  75.5592 0000619  53.3765  30.1409  1.00273234  1271
SHIJIAN-29A (SJ-29A)    
1 67302U 25315A   26117.07566933 -.00000078  00000+0  00000+0 0  9994
2 67302   3.2693  96.3555 0002781 322.8697 256.5675  1.00274841  1106
SHIJIAN-29B (SJ-29B)    
1 67403U 25315C   26117.18740350 -.00000079  00000+0  00000+0 0  9996
2 67403   3.2688  96.3483 0006535 339.0151 280.8505  1.00274882  1172
ELEKTRO-L 5             
1 67756U 26028A   26116.19366666 -.00000111  00000+0  00000+0 0  9990
2 67756   0.3603 297.1584 0000993 184.7777 238.0649  1.00271675   734
JAM-E JAM 1             
1 67757U 26028B   26117.20600329  .00000145  00000+0  00000+0 0  9997
2 67757   0.3745 291.4196 0000504 293.3424  98.5370  1.00266157   618
ECHOSTAR 25             
1 68126U 26045A   26114.80851147  .00000000  00000+0  00000+0 0  9996
2 68126   0.0161  49.1041 0002923  45.4072 280.5526  1.00269397   454
